NORAD_CAT_ID,OBJECT_NAME,OBJECT_TYPE,EPOCH,MEAN_MOTION,ECCENTRICITY,INCLINATION,RA_OF_ASC_NODE,ARG_OF_PERICENTER,MEAN_ANOMALY,BSTAR,MEAN_MOTION_DOT,MEAN_MOTION_DDOT,TLE_LINE0,TLE_LINE1,TLE_LINE2,SEMIMAJOR_AXIS,PERIOD,APOGEE,PERIGEE,DECAYED
52645.0,STARLINK-3973,PAYLOAD,2022-12-30 02:05:39,15.08820673,0.0002316,53.2191,91.7268,44.9243,315.1937,-0.00010585,-1.972e-05,0.0,0 STARLINK-3973,1 52645U 22052AZ  22364.08726344 -.00001972  00000-0 -10585-3 0  9997,2 52645  53.2191  91.7268 0002316  44.9243 315.1937 15.08820673 35542,6917.939,95.439,541.4069999999998,538.202,0.0
52645.0,STARLINK-3973,PAYLOAD,2022-12-30 10:02:34,15.08823808,0.0002375,53.2187,90.2403,41.4076,318.7096,0.00011002,1.462e-05,0.0,0 STARLINK-3973,1 52645U 22052AZ  22364.41845873  .00001462  00000-0  11002-3 0  9990,2 52645  53.2187  90.2403 0002375  41.4076 318.7096 15.08823808 35596,6917.93,95.439,541.438,538.1519999999998,0.0
52645.0,STARLINK-3973,PAYLOAD,2022-12-30 13:13:20,15.08827926,0.000251,53.2185,89.6458,40.49800000000001,319.6199,0.00016439,2.328e-05,0.0,0 STARLINK-3973,1 52645U 22052AZ  22364.55093678  .00002328  00000-0  16439-3 0  9994,2 52645  53.2185  89.6458 0002510  40.4980 319.6199 15.08827926 35230,6917.917,95.438,541.519,538.0459999999998,0.0
52645.0,STARLINK-3973,PAYLOAD,2022-12-30 14:48:43,15.0883204,0.0002488,53.2184,89.3484,42.1304,317.9879,0.00020432,2.964e-05,0.0,0 STARLINK-3973,1 52645U 22052AZ  22364.61717426  .00002964  00000-0  20432-3 0  9999,2 52645  53.2184  89.3484 0002488  42.1304 317.9879 15.08832040 35620,6917.905,95.438,541.491,538.049,0.0
52645.0,STARLINK-3973,PAYLOAD,2022-12-30 22:45:38,15.08846559,0.0002568,53.2187,87.8618,41.212,318.9066,0.00035553,5.376e-05,0.0,0 STARLINK-3973,1 52645U 22052AZ  22364.94836620  .00005376  00000-0  35553-3 0  9993,2 52645  53.2187  87.8618 0002568  41.2120 318.9066 15.08846559 35674,6917.86,95.437,541.502,537.9490000000002,0.0
52645.0,STARLINK-3973,PAYLOAD,2022-12-31 11:28:44,15.08857542,0.0002577,53.2177,85.4828,39.8507,320.2674,0.00070323,0.00010927,0.0,0 STARLINK-3973,1 52645U 22052AZ  22365.47828846  .00010927  00000-0  70323-3 0  9995,2 52645  53.2177  85.4828 0002577  39.8507 320.2674 15.08857542 35374,6917.8269999999975,95.436,541.474,537.909,0.0
52645.0,STARLINK-3973,PAYLOAD,2022-12-31 14:39:30,15.08860955,0.0002583,53.2175,84.88799999999998,39.6107,320.5073,0.00067522,0.00010481,0.0,0 STARLINK-3973,1 52645U 22052AZ  22365.61076949  .00010481  00000-0  67522-3 0  9992,2 52645  53.2175  84.8880 0002583  39.6107 320.5073 15.08860955 35394,6917.816,95.436,541.4680000000002,537.894,0.0
52645.0,STARLINK-3973,PAYLOAD,2022-12-31 22:36:25,15.08854338,0.0002803,53.2177,83.40100000000002,40.2858,319.8342,0.00014985,2.098e-05,0.0,0 STARLINK-3973,1 52645U 22052AZ  22365.94196735  .00002098  00000-0  14985-3 0  9994,2 52645  53.2177  83.4010 0002803  40.2858 319.8342 15.08854338 35828,6917.837,95.437,541.641,537.762,0.0
52645.0,STARLINK-3973,PAYLOAD,2023-01-01 11:19:31,15.08828754,0.0002193,53.2167,81.0231,32.5456,327.5671,-0.00033077,-5.547e-05,0.0,0 STARLINK-3973,1 52645U 22052AZ  23001.47189491 -.00005547  00000-0 -33077-3 0  9998,2 52645  53.2167  81.0231 0002193  32.5456 327.5671 15.08828754 35909,6917.915,95.438,541.297,538.263,0.0
52645.0,STARLINK-3973,PAYLOAD,2023-01-01 12:54:54,15.08829899,0.0002141,53.2183,80.7228,37.5531,322.5611,-0.00030558,-5.147e-05,0.0,0 STARLINK-3973,1 52645U 22052AZ  23001.53813457 -.00005147  00000-0 -30558-3 0  9998,2 52645  53.2183  80.7228 0002141  37.5531 322.5611 15.08829899 35530,6917.911,95.438,541.257,538.295,0.0
52645.0,STARLINK-3973,PAYLOAD,2023-01-02 11:10:18,15.08843501,0.0002485999999999,53.2177,76.5624,33.6378,326.4772,0.0001202,1.625e-05,0.0,0 STARLINK-3973,1 52645U 22052AZ  23002.46549440  .00001625  00000-0  12020-3 0  9998,2 52645  53.2177  76.5624 0002486  33.6378 326.4772 15.08843501 36059,6917.87,95.437,541.4540000000002,538.015,0.0
52645.0,STARLINK-3973,PAYLOAD,2023-01-03 11:01:06,15.08841997,0.0002544,53.2177,72.1026,32.2925,327.8222,0.00029925,4.478e-05,0.0,0 STARLINK-3973,1 52645U 22052AZ  23003.45910069  .00004478  00000-0  29925-3 0  9998,2 52645  53.2177  72.1026 0002544  32.2925 327.8222 15.08841997 36204,6917.874,95.437,541.499,537.979,0.0
52645.0,STARLINK-3973,PAYLOAD,2023-01-04 10:51:52,15.08850402,0.0002589,53.2176,67.642,30.2907,329.8235,0.00028673,4.279e-05,0.0,0 STARLINK-3973,1 52645U 22052AZ  23004.45269667  .00004279  00000-0  28673-3 0  9998,2 52645  53.2176  67.6420 0002589  30.2907 329.8235 15.08850402 35977,6917.849,95.437,541.505,537.923,0.0
52645.0,STARLINK-3973,PAYLOAD,2023-01-05 04:21:06,15.08858465,0.0002576,53.2175,64.3719,32.1376,327.9773,0.00035633,5.39e-05,0.0,0 STARLINK-3973,1 52645U 22052AZ  23005.18132930  .00005390  00000-0  35633-3 0  9990,2 52645  53.2175  64.3719 0002576  32.1376 327.9773 15.08858465 36466,6917.824000000001,95.436,541.471,537.9069999999998,0.0
52645.0,STARLINK-3973,PAYLOAD,2023-01-05 13:53:25,15.08862804,0.000256,53.2173,62.588,28.3051,331.80800000000005,0.00031989,4.81e-05,0.0,0 STARLINK-3973,1 52645U 22052AZ  23005.57876303  .00004810  00000-0  31989-3 0  9998,2 52645  53.2173  62.5880 0002560  28.3051 331.8080 15.08862804 36145,6917.811,95.436,541.447,537.905,0.0
52645.0,STARLINK-3973,PAYLOAD,2023-01-06 10:33:26,15.08821126,0.0002391,53.2175,58.7232,31.5492,328.5643,-0.00056976,-9.34e-05,0.0,0 STARLINK-3973,1 52645U 22052AZ  23006.43989353 -.00009340  00000-0 -56976-3 0  9992,2 52645  53.2175  58.7232 0002391  31.5492 328.5643 15.08821126 36658,6917.938,95.439,541.457,538.149,0.0
52645.0,STARLINK-3973,PAYLOAD,2023-01-06 12:08:50,15.08817236,0.0002552,53.2164,58.4245,28.3214,331.7916,-0.0006335,-0.00010351,0.0,0 STARLINK-3973,1 52645U 22052AZ  23006.50613572 -.00010351  00000-0 -63350-3 0  9995,2 52645  53.2164  58.4245 0002552  28.3214 331.7916 15.08817236 36287,6917.95,95.439,541.58,538.05,0.0
52645.0,STARLINK-3973,PAYLOAD,2023-01-07 02:27:17,15.08844006,0.000259,53.2165,55.7487,24.8404,335.2712,-1.5656e-05,-5.38e-06,0.0,0 STARLINK-3973,1 52645U 22052AZ  23007.10228680 -.00000538  00000-0 -15656-4 0  9997,2 52645  53.2165  55.7487 0002590  24.8404 335.2712 15.08844006 36750,6917.868,95.437,541.525,537.941,0.0
52645.0,STARLINK-3973,PAYLOAD,2023-01-07 05:38:03,15.08840625,0.0002476,53.216,55.153,27.4584,332.6538,-6.8807e-05,-1.383e-05,0.0,0 STARLINK-3973,1 52645U 22052AZ  23007.23476836 -.00001383  00000-0 -68807-4 0  9994,2 52645  53.2160  55.1530 0002476  27.4584 332.6538 15.08840625 36399,6917.8780000000015,95.438,541.456,538.031,0.0
52645.0,STARLINK-3973,PAYLOAD,2023-01-07 10:24:13,15.08836518,0.000254,53.2158,54.2607,25.38,334.7316,-4.8316e-05,-1.057e-05,0.0,0 STARLINK-3973,1 52645U 22052AZ  23007.43349079 -.00001057  00000-0 -48316-4 0  9995,2 52645  53.2158  54.2607 0002540  25.3800 334.7316 15.08836518 36800,6917.891,95.438,541.513,537.999,0.0
52645.0,STARLINK-3973,PAYLOAD,2023-01-07 19:56:33,15.08821689,0.0002631999999999,53.2159,52.4759,27.9307,332.1826,-0.00025101,-4.279e-05,0.0,0 STARLINK-3973,1 52645U 22052AZ  23007.83094149 -.00004279  00000-0 -25101-3 0  9999,2 52645  53.2159  52.4759 0002632  27.9307 332.1826 15.08821689 36868,6917.936,95.439,541.622,537.981,0.0
52645.0,STARLINK-3973,PAYLOAD,2023-01-08 02:18:06,15.0881376,0.0002488,53.2173,51.285,22.488000000000003,337.622,7.6986e-05,9.36e-06,0.0,0 STARLINK-3973,1 52645U 22052AZ  23008.09591024  .00000936  00000-0  76986-4 0  9994,2 52645  53.2173  51.2850 0002488  22.4880 337.6220 15.08813760 36902,6917.960999999998,95.439,541.547,538.104,0.0
52645.0,STARLINK-3973,PAYLOAD,2023-01-08 11:50:25,15.08824735,0.0002571,53.2165,49.502,30.5481,329.566,0.00018892,2.718e-05,0.0,0 STARLINK-3973,1 52645U 22052AZ  23008.49334498  .00002718  00000-0  18892-3 0  9999,2 52645  53.2165  49.5020 0002571  30.5481 329.5660 15.08824735 36960,6917.927,95.439,541.571,538.013,0.0
52645.0,STARLINK-3973,PAYLOAD,2023-01-08 19:47:20,15.08831009,0.00027,53.2166,48.0151,29.349,330.7653,0.00031865,4.785e-05,0.0,0 STARLINK-3973,1 52645U 22052AZ  23008.82454228  .00004785  00000-0  31865-3 0  9991,2 52645  53.2166  48.0151 0002700  29.3490 330.7653 15.08831009 36632,6917.908,95.438,541.641,537.905,0.0
52645.0,STARLINK-3973,PAYLOAD,2023-01-09 02:08:52,15.08840942,0.0002602,53.2167,46.8254,33.8876,326.2282,0.00015915,2.245e-05,0.0,0 STARLINK-3973,1 52645U 22052AZ  23009.08949855  .00002245  00000-0  15915-3 0  9992,2 52645  53.2167  46.8254 0002602  33.8876 326.2282 15.08840942 37053,6917.8780000000015,95.437,541.543,537.942,0.0
52645.0,STARLINK-3973,PAYLOAD,2023-01-09 10:05:48,15.08844179,0.0002566999999999,53.216,45.3399,30.076,330.0379,0.00024349,3.589e-05,0.0,0 STARLINK-3973,1 52645U 22052AZ  23009.42070002  .00003589  00000-0  24349-3 0  9992,2 52645  53.2160  45.3399 0002567  30.0760 330.0379 15.08844179 36720,6917.868,95.437,541.508,537.957,0.0
52645.0,STARLINK-3973,PAYLOAD,2023-01-09 22:48:53,15.08838223,0.0002695,53.2157,42.9611,29.205,330.9093,0.00022262,3.256e-05,0.0,0 STARLINK-3973,1 52645U 22052AZ  23009.95062459  .00003256  00000-0  22262-3 0  9990,2 52645  53.2157  42.9611 0002695  29.2050 330.9093 15.08838223 37186,6917.886,95.438,541.615,537.886,0.0
52645.0,STARLINK-3973,PAYLOAD,2023-01-10 08:21:13,15.08830478,0.0002693,53.2166,41.1767,29.6706,330.4439,8.721799999999999e-05,1.1e-05,0.0,0 STARLINK-3973,1 52645U 22052AZ  23010.34807133  .00001100  00000-0  87218-4 0  9990,2 52645  53.2166  41.1767 0002693  29.6706 330.4439 15.08830478 37249,6917.9090000000015,95.438,541.637,537.9119999999998,0.0
52645.0,STARLINK-3973,PAYLOAD,2023-01-10 22:39:40,15.08846621,0.000281,53.217,38.5007,26.8944,333.2193,6.1503e-05,6.91e-06,0.0,0 STARLINK-3973,1 52645U 22052AZ  23010.94422175  .00000691  00000-0  61503-4 0  9998,2 52645  53.2170  38.5007 0002810  26.8944 333.2193 15.08846621 37330,6917.86,95.437,541.669,537.781,0.0
